{"type": "FeatureCollection", "features": [ {"type": "Feature", "properties": {"norad_id": 66899, "name": "STARLINK-36064", "group": "last-30-days", "lat": -50.48232858111341, "lon": -54.75219098483273, "alt_km": 390.0974839616383, "timestamp": "2025-12-25T09:48:51.006537+00:00", "meta": {"OBJECT_NAME": "STARLINK-36064", "OBJECT_ID": "2025-283X", "EPOCH": "2025-12-25T04:00:01.998720", "MEAN_MOTION": 15.62217741, "ECCENTRICITY": 0.0001192, "INCLINATION": 53.1601, "RA_OF_ASC_NODE": 11.784, "ARG_OF_PERICENTER": 82.5124, "MEAN_ANOMALY": 280.2855, "EPHEMERIS_TYPE": 0, "CLASSIFICATION_TYPE": "U", "NORAD_CAT_ID": 66899, "ELEMENT_SET_NO": 999, "REV_AT_EPOCH": 436, "BSTAR": -0.025765, "MEAN_MOTION_DOT": -0.02026613, "MEAN_MOTION_DDOT": 0}, "tle": {"line1": "1 66899U 25283X   25359.16668980 -.02026613  00000+0 -25765-1 0  9993", "line2": "2 66899  53.1601  11.7840 0001192  82.5124 280.2855 15.62217741  4361"}}, "geometry": {"type": "Point", "coordinates": [-54.75219098483273, -50.48232858111341]}}, {"type": "Feature", "properties": {"norad_id": 66900, "name": "STARLINK-36074", "group": "last-30-days", "lat": -49.810266032603174, "lon": -51.96132869354829, "alt_km": 390.0556477706132, "timestamp": "2025-12-25T09:48:51.006557+00:00", "meta": {"OBJECT_NAME": "STARLINK-36074", "OBJECT_ID": "2025-283Y", "EPOCH": "2025-12-25T04:00:01.998720", "MEAN_MOTION": 15.62214844, "ECCENTRICITY": 0.0001178, "INCLINATION": 53.16, "RA_OF_ASC_NODE": 11.7801, "ARG_OF_PERICENTER": 82.1058, "MEAN_ANOMALY": 282.6099, "EPHEMERIS_TYPE": 0, "CLASSIFICATION_TYPE": "U", "NORAD_CAT_ID": 66900, "ELEMENT_SET_NO": 999, "REV_AT_EPOCH": 442, "BSTAR": -0.025689, "MEAN_MOTION_DOT": -0.0202123, "MEAN_MOTION_DDOT": 0}, "tle": {"line1": "1 66900U 25283Y   25359.16668980 -.02021230  00000+0 -25689-1 0  9991", "line2": "2 66900  53.1600  11.7801 0001178  82.1058 282.6099 15.62214844  4420"}}, "geometry": {"type": "Point", "coordinates": [-51.96132869354829, -49.810266032603174]}}, {"type": "Feature", "properties": {"norad_id": 66901, "name": "STARLINK-36043", "group": "last-30-days", "lat": -49.07255785680685, "lon": -49.24970760482517, "alt_km": 390.01167327426356, "timestamp": "2025-12-25T09:48:51.006572+00:00", "meta": {"OBJECT_NAME": "STARLINK-36043", "OBJECT_ID": "2025-283Z", "EPOCH": "2025-12-25T04:00:01.998720", "MEAN_MOTION": 15.62217065, "ECCENTRICITY": 0.000115, "INCLINATION": 53.16, "RA_OF_ASC_NODE": 11.7756, "ARG_OF_PERICENTER": 82.7586, "MEAN_ANOMALY": 283.8739, "EPHEMERIS_TYPE": 0, "CLASSIFICATION_TYPE": "U", "NORAD_CAT_ID": 66901, "ELEMENT_SET_NO": 999, "REV_AT_EPOCH": 442, "BSTAR": -0.025757, "MEAN_MOTION_DOT": -0.02026003, "MEAN_MOTION_DDOT": 0}, "tle": {"line1": "1 66901U 25283Z   25359.16668980 -.02026003  00000+0 -25757-1 0  9991", "line2": "2 66901  53.1600  11.7756 0001150  82.7586 283.8739 15.62217065  4424"}}, "geometry": {"type": "Point", "coordinates": [-49.24970760482517, -49.07255785680685]}}, {"type": "Feature", "properties": {"norad_id": 66902, "name": "STARLINK-35983", "group": "last-30-days", "lat": -48.27282765209839, "lon": -46.61980532723127, "alt_km": 389.9558670236156, "timestamp": "2025-12-25T09:48:51.006583+00:00", "meta": {"OBJECT_NAME": "STARLINK-35983", "OBJECT_ID": "2025-283AA", "EPOCH": "2025-12-25T04:00:01.998720", "MEAN_MOTION": 15.62215926, "ECCENTRICITY": 0.0001098, "INCLINATION": 53.1599, "RA_OF_ASC_NODE": 11.7718, "ARG_OF_PERICENTER": 84.6164, "MEAN_ANOMALY": 283.9342, "EPHEMERIS_TYPE": 0, "CLASSIFICATION_TYPE": "U", "NORAD_CAT_ID": 66902, "ELEMENT_SET_NO": 999, "REV_AT_EPOCH": 442, "BSTAR": -0.025747, "MEAN_MOTION_DOT": -0.0202519, "MEAN_MOTION_DDOT": 0}, "tle": {"line1": "1 66902U 25283AA  25359.16668980 -.02025190  00000+0 -25747-1 0  9997", "line2": "2 66902  53.1599  11.7718 0001098  84.6164 283.9342 15.62215926  4429"}}, "geometry": {"type": "Point", "coordinates": [-46.61980532723127, -48.27282765209839]}}, {"type": "Feature", "properties": {"norad_id": 66903, "name": "STARLINK-36077", "group": "last-30-days", "lat": -47.41574940574653, "lon": -44.07588592126329, "alt_km": 389.90089950780657, "timestamp": "2025-12-25T09:48:51.006595+00:00", "meta": {"OBJECT_NAME": "STARLINK-36077", "OBJECT_ID": "2025-283AB", "EPOCH": "2025-12-25T04:00:01.998720", "MEAN_MOTION": 15.62217638, "ECCENTRICITY": 0.000109, "INCLINATION": 53.1599, "RA_OF_ASC_NODE": 11.7683, "ARG_OF_PERICENTER": 82.7301, "MEAN_ANOMALY": 287.7359, "EPHEMERIS_TYPE": 0, "CLASSIFICATION_TYPE": "U", "NORAD_CAT_ID": 66903, "ELEMENT_SET_NO": 999, "REV_AT_EPOCH": 442, "BSTAR": -0.025772, "MEAN_MOTION_DOT": -0.02027017, "MEAN_MOTION_DDOT": 0}, "tle": {"line1": "1 66903U 25283AB  25359.16668980 -.02027017  00000+0 -25772-1 0  9996", "line2": "2 66903  53.1599  11.7683 0001090  82.7301 287.7359 15.62217638  4427"}}, "geometry": {"type": "Point", "coordinates": [-44.07588592126329, -47.41574940574653]}}, {"type": "Feature", "properties": {"norad_id": 66904, "name": "STARLINK-36059", "group": "last-30-days", "lat": -46.50326274520046, "lon": -41.61527239976232, "alt_km": 389.84542028061696, "timestamp": "2025-12-25T09:48:51.006605+00:00", "meta": {"OBJECT_NAME": "STARLINK-36059", "OBJECT_ID": "2025-283AC", "EPOCH": "2025-12-25T04:00:01.998720", "MEAN_MOTION": 15.62217417, "ECCENTRICITY": 0.0001057, "INCLINATION": 53.1599, "RA_OF_ASC_NODE": 11.7635, "ARG_OF_PERICENTER": 83.7761, "MEAN_ANOMALY": 288.6074, "EPHEMERIS_TYPE": 0, "CLASSIFICATION_TYPE": "U", "NORAD_CAT_ID": 66904, "ELEMENT_SET_NO": 999, "REV_AT_EPOCH": 442, "BSTAR": -0.02577, "MEAN_MOTION_DOT": -0.02026872, "MEAN_MOTION_DDOT": 0}, "tle": {"line1": "1 66904U 25283AC  25359.16668980 -.02026872  00000+0 -25770-1 0  9993", "line2": "2 66904  53.1599  11.7635 0001057  83.7761 288.6074 15.62217417  4428"}}, "geometry": {"type": "Point", "coordinates": [-41.61527239976232, -46.50326274520046]}}, {"type": "Feature", "properties": {"norad_id": 66905, "name": "STARLINK-36075", "group": "last-30-days", "lat": -45.541282584613505, "lon": -39.240900005570225, "alt_km": 389.8318364883571, "timestamp": "2025-12-25T09:48:51.006616+00:00", "meta": {"OBJECT_NAME": "STARLINK-36075", "OBJECT_ID": "2025-283AD", "EPOCH": "2025-12-25T04:00:01.998720", "MEAN_MOTION": 15.62218498, "ECCENTRICITY": 0.000117, "INCLINATION": 53.1599, "RA_OF_ASC_NODE": 11.7601, "ARG_OF_PERICENTER": 79.5486, "MEAN_ANOMALY": 294.75, "EPHEMERIS_TYPE": 0, "CLASSIFICATION_TYPE": "U", "NORAD_CAT_ID": 66905, "ELEMENT_SET_NO": 999, "REV_AT_EPOCH": 442, "BSTAR": -0.025779, "MEAN_MOTION_DOT": -0.02027637, "MEAN_MOTION_DDOT": 0}, "tle": {"line1": "1 66905U 25283AD  25359.16668980 -.02027637  00000+0 -25779-1 0  9993", "line2": "2 66905  53.1599  11.7601 0001170  79.5486 294.7500 15.62218498  4427"}}, "geometry": {"type": "Point", "coordinates": [-39.240900005570225, -45.541282584613505]}}, {"type": "Feature", "properties": {"norad_id": 66906, "name": "1998-067XS", "group": "last-30-days", "lat": -50.40800541352228, "lon": 6.23179320803998, "alt_km": 415.8291220548763, "timestamp": "2025-12-25T09:48:51.006626+00:00", "meta": {"OBJECT_NAME": "1998-067XS", "OBJECT_ID": "1998-067XS", "EPOCH": "2025-12-24T12:30:34.892352", "MEAN_MOTION": 15.51195693, "ECCENTRICITY": 0.00027903, "INCLINATION": 51.6318, "RA_OF_ASC_NODE": 83.9644, "ARG_OF_PERICENTER": 262.1551, "MEAN_ANOMALY": 97.9122, "EPHEMERIS_TYPE": 0, "CLASSIFICATION_TYPE": "U", "NORAD_CAT_ID": 66906, "ELEMENT_SET_NO": 999, "REV_AT_EPOCH": 344, "BSTAR": 0.00051725581, "MEAN_MOTION_DOT": 0.00030459, "MEAN_MOTION_DDOT": 0}, "tle": {"line1": "1 66906U 98067XS  25358.52123718  .00030459  00000+0  51726-3 0  9993", "line2": "2 66906  51.6318  83.9644 0002790 262.1551  97.9122 15.51195693  3443"}}, "geometry": {"type": "Point", "coordinates": [6.23179320803998, -50.40800541352228]}}, {"type": "Feature", "properties": {"norad_id": 66907, "name": "1998-067XT", "group": "last-30-days", "lat": -3.2579226310736087, "lon": 76.81376580595149, "alt_km": 407.55748482009494, "timestamp": "2025-12-25T09:48:51.006636+00:00", "meta": {"OBJECT_NAME": "1998-067XT", "OBJECT_ID": "1998-067XT", "EPOCH": "2025-12-24T10:39:56.166048", "MEAN_MOTION": 15.52879993, "ECCENTRICITY": 0.00038856, "INCLINATION": 51.6313, "RA_OF_ASC_NODE": 84.2012, "ARG_OF_PERICENTER": 298.2919, "MEAN_ANOMALY": 61.7678, "EPHEMERIS_TYPE": 0, "CLASSIFICATION_TYPE": "U", "NORAD_CAT_ID": 66907, "ELEMENT_SET_NO": 999, "REV_AT_EPOCH": 343, "BSTAR": 0.0010726177, "MEAN_MOTION_DOT": 0.00067981, "MEAN_MOTION_DDOT": 0}, "tle": {"line1": "1 66907U 98067XT  25358.44440007  .00067981  00000+0  10726-2 0  9992", "line2": "2 66907  51.6313  84.2012 0003885 298.2919  61.7678 15.52879993  3433"}}, "geometry": {"type": "Point", "coordinates": [76.81376580595149, -3.2579226310736087]}}, {"type": "Feature", "properties": {"norad_id": 66908, "name": "1998-067XU", "group": "last-30-days", "lat": 1.5931879966016098, "lon": 80.64779584060666, "alt_km": 406.9587548465497, "timestamp": "2025-12-25T09:48:51.006648+00:00", "meta": {"OBJECT_NAME": "1998-067XU", "OBJECT_ID": "1998-067XU", "EPOCH": "2025-12-24T10:38:25.805472", "MEAN_MOTION": 15.52977314, "ECCENTRICITY": 0.00038638, "INCLINATION": 51.6323, "RA_OF_ASC_NODE": 84.1936, "ARG_OF_PERICENTER": 296.7785, "MEAN_ANOMALY": 63.2809, "EPHEMERIS_TYPE": 0, "CLASSIFICATION_TYPE": "U", "NORAD_CAT_ID": 66908, "ELEMENT_SET_NO": 999, "REV_AT_EPOCH": 343, "BSTAR": 0.0010585814, "MEAN_MOTION_DOT": 0.00067317, "MEAN_MOTION_DDOT": 0}, "tle": {"line1": "1 66908U 98067XU  25358.44335423  .00067317  00000+0  10586-2 0  9995", "line2": "2 66908  51.6323  84.1936 0003863 296.7785  63.2809 15.52977314  3438"}}, "geometry": {"type": "Point", "coordinates": [80.64779584060666, 1.5931879966016098]}}]}